NORAD_CAT_ID,OBJECT_NAME,OBJECT_TYPE,EPOCH,MEAN_MOTION,ECCENTRICITY,INCLINATION,RA_OF_ASC_NODE,ARG_OF_PERICENTER,MEAN_ANOMALY,BSTAR,MEAN_MOTION_DOT,MEAN_MOTION_DDOT,TLE_LINE0,TLE_LINE1,TLE_LINE2,SEMIMAJOR_AXIS,PERIOD,APOGEE,PERIGEE,DECAYED
49142.0,STARLINK-3042,PAYLOAD,2023-03-27 11:51:19,14.98225341,0.0003072,69.9989,92.9705,270.6929,89.3878,0.0011345,0.00013433,0.0,0 STARLINK-3042,1 49142U 21082N   23086.49397627  .00013433  00000-0  11345-2 0  9999,2 49142  69.9989  92.9705 0003072 270.6929  89.3878 14.98225341 85466,6950.517,96.114,574.517,570.246,0.0
49142.0,STARLINK-3042,PAYLOAD,2023-03-27 18:15:55,14.9817266,0.0002726,69.9991,92.2976,282.9229,77.1625,0.002204,0.00026196,0.0,0 STARLINK-3042,1 49142U 21082N   23086.76105615  .00026196  00000-0  22040-2 0  9997,2 49142  69.9991  92.2976 0002726 282.9229  77.1625 14.98172660 85501,6950.679,96.117,574.439,570.65,0.0
49142.0,STARLINK-3042,PAYLOAD,2023-03-28 05:28:59,14.9805123,0.0003331,69.9993,91.1199,254.3414,105.7378,0.004625,0.0005513,0.0,0 STARLINK-3042,1 49142U 21082N   23087.22846361  .00055130  00000-0  46250-2 0  9998,2 49142  69.9993  91.1199 0003331 254.3414 105.7378 14.98051230 85579,6951.055,96.125,575.235,570.605,0.0
49142.0,STARLINK-3042,PAYLOAD,2023-03-28 10:17:22,14.98155718,0.0003497,69.9993,90.616,269.3671,90.7087,0.0029895,0.00035599,0.0,0 STARLINK-3042,1 49142U 21082N   23087.42873454  .00035599  00000-0  29895-2 0  9996,2 49142  69.9993  90.6160 0003497 269.3671  90.7087 14.98155718 85605,6950.732,96.118,575.028,570.166,0.0
49142.0,STARLINK-3042,PAYLOAD,2023-03-29 00:42:33,14.98329707,0.0003538,69.9985,89.0994,268.4283,91.6471,7.2273e-05,7.69e-06,0.0,0 STARLINK-3042,1 49142U 21082N   23088.02955648  .00000769  00000-0  72273-4 0  9990,2 49142  69.9985  89.0994 0003538 268.4283  91.6471 14.98329707 85695,6950.194,96.107,574.518,569.6,0.0
49142.0,STARLINK-3042,PAYLOAD,2023-03-29 10:19:21,14.98338787,0.0003566,69.9982,88.088,270.2899,89.7851,1.3035e-05,6.2e-07,0.0,0 STARLINK-3042,1 49142U 21082N   23088.43011176  .00000062  00000-0  13035-4 0  9991,2 49142  69.9982  88.0880 0003566 270.2899  89.7851 14.98338787 85755,6950.166,96.106,574.509,569.552,0.0
49142.0,STARLINK-3042,PAYLOAD,2023-03-29 16:43:54,14.9833289,0.0003449,69.9983,87.4149,267.019,93.0574,1.6616e-05,1.05e-06,0.0,0 STARLINK-3042,1 49142U 21082N   23088.69715515  .00000105  00000-0  16616-4 0  9993,2 49142  69.9983  87.4149 0003449 267.0190  93.0574 14.98332890 85798,6950.184,96.107,574.446,569.652,0.0
49142.0,STARLINK-3042,PAYLOAD,2023-03-30 03:56:50,14.98325019,0.0003692,69.9985,86.2371,267.4305,92.6431,7.3231e-05,7.81e-06,0.0,0 STARLINK-3042,1 49142U 21082N   23089.16447820  .00000781  00000-0  73231-4 0  9993,2 49142  69.9985  86.2371 0003692 267.4305  92.6431 14.98325019 85866,6950.208,96.107,574.639,569.507,0.0
49142.0,STARLINK-3042,PAYLOAD,2023-03-30 10:21:23,14.98314852,0.0003381,69.9987,85.5638,261.54,98.5376,0.00034893,4.071e-05,0.0,0 STARLINK-3042,1 49142U 21082N   23089.43151907  .00004071  00000-0  34893-3 0  9997,2 49142  69.9987  85.5638 0003381 261.5400  98.5376 14.98314852 85903,6950.24,96.108,574.455,569.755,0.0
49142.0,STARLINK-3042,PAYLOAD,2023-03-31 05:34:59,14.98332713,0.0003278,69.9987,83.5433,265.3294,94.749,9.5022e-06,2e-07,0.0,0 STARLINK-3042,1 49142U 21082N   23090.23263462  .00000020  00000-0  95022-5 0  9990,2 49142  69.9987  83.5433 0003278 265.3294  94.7490 14.98332713 86027,6950.185,96.107,574.328,569.771,0.0
49142.0,STARLINK-3042,PAYLOAD,2023-04-01 04:00:53,14.98325684,0.0003243,69.9991,81.1878,269.3064,90.7723,-2.4568e-05,-3.86e-06,0.0,0 STARLINK-3042,1 49142U 21082N   23091.16728036 -.00000386  00000-0 -24568-4 0  9999,2 49142  69.9991  81.1878 0003243 269.3064  90.7723 14.98325684 86169,6950.206,96.107,574.325,569.817,0.0
49142.0,STARLINK-3042,PAYLOAD,2023-04-01 08:49:18,14.98306535,0.0003045,69.9993,80.6823,269.0259,91.0551,-0.00020891,-2.583e-05,0.0,0 STARLINK-3042,1 49142U 21082N   23091.36757994 -.00002583  00000-0 -20891-3 0  9991,2 49142  69.9993  80.6823 0003045 269.0259  91.0551 14.98306535 86198,6950.265,96.109,574.247,570.014,0.0
49142.0,STARLINK-3042,PAYLOAD,2023-04-01 16:49:59,14.98306642,0.0003209,69.9989,79.8414,268.4119,91.6672,-0.0002106,-2.603e-05,0.0,0 STARLINK-3042,1 49142U 21082N   23091.70138378 -.00002603  00000-0 -21060-3 0  9990,2 49142  69.9989  79.8414 0003209 268.4119  91.6672 14.98306642 86244,6950.265,96.108,574.36,569.9,0.0
49142.0,STARLINK-3042,PAYLOAD,2023-04-02 07:15:11,14.98324149,0.0003473,69.9984,78.3253,267.5545,92.5217,-2.1078e-05,-3.45e-06,0.0,0 STARLINK-3042,1 49142U 21082N   23092.30221256 -.00000345  00000-0 -21078-4 0  9996,2 49142  69.9984  78.3253 0003473 267.5545  92.5217 14.98324149 86337,6950.211,96.107,574.49,569.662,0.0
49142.0,STARLINK-3042,PAYLOAD,2023-04-02 08:51:19,14.98326542,0.0003458,69.9983,78.157,267.2176,92.8588,2.9516e-06,-5.8e-07,0.0,0 STARLINK-3042,1 49142U 21082N   23092.36897062 -.00000058  00000-0  29516-5 0  9992,2 49142  69.9983  78.1570 0003458 267.2176  92.8588 14.98326542 86340,6950.204,96.107,574.472,569.665,0.0
49142.0,STARLINK-3042,PAYLOAD,2023-04-02 16:51:59,14.98312414,0.0003387,69.9983,77.3153,266.6071,93.47,0.00033829,3.944e-05,0.0,0 STARLINK-3042,1 49142U 21082N   23092.70277387  .00003944  00000-0  33829-3 0  9998,2 49142  69.9983  77.3153 0003387 266.6071  93.4700 14.98312414 86397,6950.247,96.108,574.466,569.758,0.0
49142.0,STARLINK-3042,PAYLOAD,2023-04-03 05:41:03,14.98331679,0.0003432,69.9986,75.9685,267.2664,92.8102,0.0001595,1.811e-05,0.0,0 STARLINK-3042,1 49142U 21082N   23093.23684655  .00001811  00000-0  15950-3 0  9993,2 49142  69.9986  75.9685 0003432 267.2664  92.8102 14.98331679 86472,6950.188,96.107,574.438,569.667,0.0
49142.0,STARLINK-3042,PAYLOAD,2023-04-03 08:53:19,14.98335128,0.0003361,69.9988,75.6315,266.3788,93.6987,0.00019994,2.294e-05,0.0,0 STARLINK-3042,1 49142U 21082N   23093.37036378  .00002294  00000-0  19994-3 0  9999,2 49142  69.9988  75.6315 0003361 266.3788  93.6987 14.98335128 86494,6950.177,96.107,574.378,569.706,0.0
49142.0,STARLINK-3042,PAYLOAD,2023-04-03 21:42:23,14.98338871,0.0003307,69.999,74.285,264.5783,95.4999,0.00023565,2.72e-05,0.0,0 STARLINK-3042,1 49142U 21082N   23093.90444208  .00002720  00000-0  23565-3 0  9996,2 49142  69.9990  74.2850 0003307 264.5783  95.4999 14.98338871 86571,6950.165,96.106,574.329,569.732,0.0
49142.0,STARLINK-3042,PAYLOAD,2023-04-04 05:43:03,14.98347515,0.0003321,69.999,73.4434,264.1803,95.8977,0.0002656,3.079e-05,0.0,0 STARLINK-3042,1 49142U 21082N   23094.23823477  .00003079  00000-0  26560-3 0  9998,2 49142  69.9990  73.4434 0003321 264.1803  95.8977 14.98347515 86626,6950.139,96.106,574.312,569.696,0.0
49142.0,STARLINK-3042,PAYLOAD,2023-04-04 08:55:19,14.98350512,0.0003304,69.9991,73.1066,264.0438,96.0345,0.0003005,3.496e-05,0.0,0 STARLINK-3042,1 49142U 21082N   23094.37175160  .00003496  00000-0  30050-3 0  9994,2 49142  69.9991  73.1066 0003304 264.0438  96.0345 14.98350512 86644,6950.129,96.106,574.291,569.698,0.0
49142.0,STARLINK-3042,PAYLOAD,2023-04-05 05:45:05,14.98334365,0.0002844,70.0013,70.9205,250.5211,109.5641,3.5476e-05,3.3e-06,0.0,0 STARLINK-3042,1 49142U 21082N   23095.23964140  .00000330  00000-0  35476-4 0  9996,2 49142  70.0013  70.9205 0002844 250.5211 109.5641 14.98334365 86770,6950.179,96.107,574.021,570.068,0.0
49142.0,STARLINK-3042,PAYLOAD,2023-04-05 08:57:21,14.98334568,0.0002742,70.001,70.5846,247.9278,112.159,-1.0808e-05,-2.22e-06,0.0,0 STARLINK-3042,1 49142U 21082N   23095.37316123 -.00000222  00000-0 -10808-4 0  9997,2 49142  70.0010  70.5846 0002742 247.9278 112.1590 14.98334568 86794,6950.179,96.107,573.95,570.138,0.0
49142.0,STARLINK-3042,PAYLOAD,2023-04-06 07:23:13,14.98340731,0.0003243,70.0002,68.2253,264.8076,95.2713,-0.00013272,-1.677e-05,0.0,0 STARLINK-3042,1 49142U 21082N   23096.30779401 -.00001677  00000-0 -13272-3 0  9995,2 49142  70.0002  68.2253 0003243 264.8076  95.2713 14.98340731 86935,6950.16,96.106,574.279,569.771,0.0
49142.0,STARLINK-3042,PAYLOAD,2023-04-06 15:23:53,14.98338083,0.0003055,70.0003,67.385,266.194,93.887,-0.00010989,-1.404e-05,0.0,0 STARLINK-3042,1 49142U 21082N   23096.64159341 -.00001404  00000-0 -10989-3 0  9997,2 49142  70.0003  67.3850 0003055 266.1940  93.8870 14.98338083 86985,6950.168,96.106,574.156,569.91,0.0
49142.0,STARLINK-3042,PAYLOAD,2023-04-07 05:49:06,14.98328521,0.0003116,70.0005,65.8705,270.6236,89.4566,4.0438e-05,3.9e-06,0.0,0 STARLINK-3042,1 49142U 21082N   23097.24243681  .00000390  00000-0  40438-4 0  9999,2 49142  70.0005  65.8705 0003116 270.6236  89.4566 14.98328521 87075,6950.197,96.107,574.228,569.897,0.0
49142.0,STARLINK-3042,PAYLOAD,2023-04-07 07:25:14,14.9833057,0.000293,70.0003,65.7019,264.2771,95.8054,1.4975e-05,8.6e-07,0.0,0 STARLINK-3042,1 49142U 21082N   23097.30919590  .00000086  00000-0  14975-4 0  9994,2 49142  70.0003  65.7019 0002930 264.2771  95.8054 14.98330570 87087,6950.191,96.107,574.093,570.02,0.0
49142.0,STARLINK-3042,PAYLOAD,2023-04-08 04:14:58,14.98335968,0.0003139,70.0001,63.5118,268.5665,91.5135,0.00012313,1.377e-05,0.0,0 STARLINK-3042,1 49142U 21082N   23098.17706844  .00001377  00000-0  12313-3 0  9993,2 49142  70.0001  63.5118 0003139 268.5665  91.5135 14.98335968 87216,6950.174,96.107,574.221,569.858,0.0
49142.0,STARLINK-3042,PAYLOAD,2023-04-08 07:27:14,14.98337998,0.000305,70.0001,63.175,267.8116,92.2693,0.00012649,1.417e-05,0.0,0 STARLINK-3042,1 49142U 21082N   23098.31058675  .00001417  00000-0  12649-3 0  9998,2 49142  70.0001  63.1750 0003050 267.8116  92.2693 14.98337998 87233,6950.168,96.106,574.153,569.913,0.0
49142.0,STARLINK-3042,PAYLOAD,2023-04-08 15:27:55,14.98331559,0.0002955,70.0004,62.3329,270.1046,89.9774,4.5962e-05,4.55e-06,0.0,0 STARLINK-3042,1 49142U 21082N   23098.64439214  .00000455  00000-0  45962-4 0  9992,2 49142  70.0004  62.3329 0002955 270.1046  89.9774 14.98331559 87286,6950.188,96.107,574.107,569.999,0.0
